CCSDS_OMM_VERS = 2.0
CREATION_DATE  = 
ORIGINATOR     = 

OBJECT_NAME    = UNKNOWN
OBJECT_ID      = 
CENTER_NAME    = EARTH
REF_FRAME      = TEME
TIME_SYSTEM    = UTC
MEAN_ELEMENT_THEORY = SGP/SGP4

EPOCH          = 2026-03-03T21:05:30.884352
MEAN_MOTION    = 14.04698837
ECCENTRICITY   = .0081356
INCLINATION    = 98.7477
RA_OF_ASC_NODE = 100.2460
ARG_OF_PERICENTER = 23.6181
MEAN_ANOMALY   = 336.8689

EPHEMERIS_TYPE = 0
CLASSIFICATION_TYPE = U
NORAD_CAT_ID   = 87029
ELEMENT_SET_NO = 999
REV_AT_EPOCH   = 60439
BSTAR          = .92545E-3
MEAN_MOTION_DOT = .1484E-4
MEAN_MOTION_DDOT = 0

CCSDS_OMM_VERS = 2.0
CREATION_DATE  = 
ORIGINATOR     = 

OBJECT_NAME    = UNKNOWN
OBJECT_ID      = 
CENTER_NAME    = EARTH
REF_FRAME      = TEME
TIME_SYSTEM    = UTC
MEAN_ELEMENT_THEORY = SGP/SGP4

EPOCH          = 2026-03-06T13:55:37.456032
MEAN_MOTION    = 14.07270112
ECCENTRICITY   = .0043131
INCLINATION    = 98.7028
RA_OF_ASC_NODE = 110.7446
ARG_OF_PERICENTER = 216.9306
MEAN_ANOMALY   = 142.8892

EPHEMERIS_TYPE = 0
CLASSIFICATION_TYPE = U
NORAD_CAT_ID   = 87042
ELEMENT_SET_NO = 999
REV_AT_EPOCH   = 56575
BSTAR          = .45797E-3
MEAN_MOTION_DOT = .733E-5
MEAN_MOTION_DDOT = 0

CCSDS_OMM_VERS = 2.0
CREATION_DATE  = 
ORIGINATOR     = 

OBJECT_NAME    = UNKNOWN
OBJECT_ID      = 
CENTER_NAME    = EARTH
REF_FRAME      = TEME
TIME_SYSTEM    = UTC
MEAN_ELEMENT_THEORY = SGP/SGP4

EPOCH          = 2026-03-08T22:30:59.703264
MEAN_MOTION    = 13.46257965
ECCENTRICITY   = .070873
INCLINATION    = 65.7288
RA_OF_ASC_NODE = 48.7928
ARG_OF_PERICENTER = 101.8179
MEAN_ANOMALY   = 266.3198

EPHEMERIS_TYPE = 0
CLASSIFICATION_TYPE = U
NORAD_CAT_ID   = 87051
ELEMENT_SET_NO = 999
REV_AT_EPOCH   = 60018
BSTAR          = .70028E-3
MEAN_MOTION_DOT = .194E-4
MEAN_MOTION_DDOT = 0

CCSDS_OMM_VERS = 2.0
CREATION_DATE  = 
ORIGINATOR     = 

OBJECT_NAME    = UNKNOWN
OBJECT_ID      = 
CENTER_NAME    = EARTH
REF_FRAME      = TEME
TIME_SYSTEM    = UTC
MEAN_ELEMENT_THEORY = SGP/SGP4

EPOCH          = 2026-03-05T11:08:08.016288
MEAN_MOTION    = 14.11453652
ECCENTRICITY   = .00132
INCLINATION    = 100.0898
RA_OF_ASC_NODE = 319.0489
ARG_OF_PERICENTER = 114.8770
MEAN_ANOMALY   = 245.3770

EPHEMERIS_TYPE = 0
CLASSIFICATION_TYPE = U
NORAD_CAT_ID   = 87054
ELEMENT_SET_NO = 999
REV_AT_EPOCH   = 62799
BSTAR          = .13022E-2
MEAN_MOTION_DOT = .2308E-4
MEAN_MOTION_DDOT = 0

CCSDS_OMM_VERS = 2.0
CREATION_DATE  = 
ORIGINATOR     = 

OBJECT_NAME    = UNKNOWN
OBJECT_ID      = 
CENTER_NAME    = EARTH
REF_FRAME      = TEME
TIME_SYSTEM    = UTC
MEAN_ELEMENT_THEORY = SGP/SGP4

EPOCH          = 2026-03-08T20:46:11.910432
MEAN_MOTION    = 13.86646500
ECCENTRICITY   = .0472183
INCLINATION    = 61.2237
RA_OF_ASC_NODE = 15.6757
ARG_OF_PERICENTER = 280.9760
MEAN_ANOMALY   = 73.8509

EPHEMERIS_TYPE = 0
CLASSIFICATION_TYPE = U
NORAD_CAT_ID   = 87071
ELEMENT_SET_NO = 999
REV_AT_EPOCH   = 61442
BSTAR          = .2239E-2
MEAN_MOTION_DOT = .6216E-4
MEAN_MOTION_DDOT = 0

CCSDS_OMM_VERS = 2.0
CREATION_DATE  = 
ORIGINATOR     = 

OBJECT_NAME    = UNKNOWN
OBJECT_ID      = 
CENTER_NAME    = EARTH
REF_FRAME      = TEME
TIME_SYSTEM    = UTC
MEAN_ELEMENT_THEORY = SGP/SGP4

EPOCH          = 2026-03-06T05:44:50.249472
MEAN_MOTION    = 12.42856188
ECCENTRICITY   = .0031013
INCLINATION    = 102.2547
RA_OF_ASC_NODE = 162.1930
ARG_OF_PERICENTER = 280.9612
MEAN_ANOMALY   = 78.7964

EPHEMERIS_TYPE = 0
CLASSIFICATION_TYPE = U
NORAD_CAT_ID   = 87129
ELEMENT_SET_NO = 999
REV_AT_EPOCH   = 55704
BSTAR          = .19652E-2
MEAN_MOTION_DOT = .226E-5
MEAN_MOTION_DDOT = 0

CCSDS_OMM_VERS = 2.0
CREATION_DATE  = 
ORIGINATOR     = 

OBJECT_NAME    = UNKNOWN
OBJECT_ID      = 
CENTER_NAME    = EARTH
REF_FRAME      = TEME
TIME_SYSTEM    = UTC
MEAN_ELEMENT_THEORY = SGP/SGP4

EPOCH          = 2026-03-10T10:34:13.186560
MEAN_MOTION    = 13.66321510
ECCENTRICITY   = .0104468
INCLINATION    = 90.3458
RA_OF_ASC_NODE = 72.5568
ARG_OF_PERICENTER = 358.4070
MEAN_ANOMALY   = 1.6742

EPHEMERIS_TYPE = 0
CLASSIFICATION_TYPE = U
NORAD_CAT_ID   = 87159
ELEMENT_SET_NO = 999
REV_AT_EPOCH   = 56866
BSTAR          = .19038E-2
MEAN_MOTION_DOT = .1641E-4
MEAN_MOTION_DDOT = 0

CCSDS_OMM_VERS = 2.0
CREATION_DATE  = 
ORIGINATOR     = 

OBJECT_NAME    = UNKNOWN
OBJECT_ID      = 
CENTER_NAME    = EARTH
REF_FRAME      = TEME
TIME_SYSTEM    = UTC
MEAN_ELEMENT_THEORY = SGP/SGP4

EPOCH          = 2026-03-09T22:51:05.217408
MEAN_MOTION    = 13.64501191
ECCENTRICITY   = .0645943
INCLINATION    = 65.6021
RA_OF_ASC_NODE = 21.1047
ARG_OF_PERICENTER = 25.5986
MEAN_ANOMALY   = 337.5605

EPHEMERIS_TYPE = 0
CLASSIFICATION_TYPE = U
NORAD_CAT_ID   = 87163
ELEMENT_SET_NO = 999
REV_AT_EPOCH   = 58941
BSTAR          = .22791E-2
MEAN_MOTION_DOT = .7812E-4
MEAN_MOTION_DDOT = 0

CCSDS_OMM_VERS = 2.0
CREATION_DATE  = 
ORIGINATOR     = 

OBJECT_NAME    = UNKNOWN
OBJECT_ID      = 
CENTER_NAME    = EARTH
REF_FRAME      = TEME
TIME_SYSTEM    = UTC
MEAN_ELEMENT_THEORY = SGP/SGP4

EPOCH          = 2026-03-09T09:54:57.914784
MEAN_MOTION    = 14.59294222
ECCENTRICITY   = .0106584
INCLINATION    = 65.2027
RA_OF_ASC_NODE = 75.7912
ARG_OF_PERICENTER = 14.2221
MEAN_ANOMALY   = 346.1838

EPHEMERIS_TYPE = 0
CLASSIFICATION_TYPE = U
NORAD_CAT_ID   = 87164
ELEMENT_SET_NO = 999
REV_AT_EPOCH   = 64841
BSTAR          = .11471E-2
MEAN_MOTION_DOT = .5763E-4
MEAN_MOTION_DDOT = 0

CCSDS_OMM_VERS = 2.0
CREATION_DATE  = 
ORIGINATOR     = 

OBJECT_NAME    = UNKNOWN
OBJECT_ID      = 
CENTER_NAME    = EARTH
REF_FRAME      = TEME
TIME_SYSTEM    = UTC
MEAN_ELEMENT_THEORY = SGP/SGP4

EPOCH          = 2026-03-10T09:49:56.568864
MEAN_MOTION    = 14.29810383
ECCENTRICITY   = .0046574
INCLINATION    = 98.5321
RA_OF_ASC_NODE = 293.4768
ARG_OF_PERICENTER = 66.3350
MEAN_ANOMALY   = 294.2711

EPHEMERIS_TYPE = 0
CLASSIFICATION_TYPE = U
NORAD_CAT_ID   = 87204
ELEMENT_SET_NO = 999
REV_AT_EPOCH   = 63796
BSTAR          = .94572E-3
MEAN_MOTION_DOT = .2417E-4
MEAN_MOTION_DDOT = 0

CCSDS_OMM_VERS = 2.0
CREATION_DATE  = 
ORIGINATOR     = 

OBJECT_NAME    = UNKNOWN
OBJECT_ID      = 
CENTER_NAME    = EARTH
REF_FRAME      = TEME
TIME_SYSTEM    = UTC
MEAN_ELEMENT_THEORY = SGP/SGP4

EPOCH          = 2026-03-09T06:01:35.053824
MEAN_MOTION    = 14.47250724
ECCENTRICITY   = .0051446
INCLINATION    = 99.0880
RA_OF_ASC_NODE = 79.3210
ARG_OF_PERICENTER = 261.4956
MEAN_ANOMALY   = 157.7742

EPHEMERIS_TYPE = 0
CLASSIFICATION_TYPE = U
NORAD_CAT_ID   = 87211
ELEMENT_SET_NO = 999
REV_AT_EPOCH   = 72028
BSTAR          = .1118E-2
MEAN_MOTION_DOT = .4105E-4
MEAN_MOTION_DDOT = 0

CCSDS_OMM_VERS = 2.0
CREATION_DATE  = 
ORIGINATOR     = 

OBJECT_NAME    = UNKNOWN
OBJECT_ID      = 
CENTER_NAME    = EARTH
REF_FRAME      = TEME
TIME_SYSTEM    = UTC
MEAN_ELEMENT_THEORY = SGP/SGP4

EPOCH          = 2026-03-08T11:29:18.290688
MEAN_MOTION    = 13.84277415
ECCENTRICITY   = .0068594
INCLINATION    = 100.3328
RA_OF_ASC_NODE = 79.5786
ARG_OF_PERICENTER = 35.0870
MEAN_ANOMALY   = 325.4772

EPHEMERIS_TYPE = 0
CLASSIFICATION_TYPE = U
NORAD_CAT_ID   = 87214
ELEMENT_SET_NO = 999
REV_AT_EPOCH   = 61210
BSTAR          = .18135E-2
MEAN_MOTION_DOT = .2011E-4
MEAN_MOTION_DDOT = 0

