UNKNOWN                 
1 87029U          26062.87882968  .00001484  00000+0  92545-3 0  9992
2 87029  98.7477 100.2460 0081356  23.6181 336.8689 14.04698837604392
UNKNOWN                 
1 87042U          26065.58029463  .00000733  00000+0  45797-3 0  9994
2 87042  98.7028 110.7446 0043131 216.9306 142.8892 14.07270112565756
UNKNOWN                 
1 87051U          26067.93819101  .00001940  00000+0  70028-3 0  9997
2 87051  65.7288  48.7928 0708730 101.8179 266.3198 13.46257965600187
UNKNOWN                 
1 87054U          26064.46398167  .00002308  00000+0  13022-2 0  9998
2 87054 100.0898 319.0489 0013200 114.8770 245.3770 14.11453652627993
UNKNOWN                 
1 87071U          26067.86541563  .00006216  00000+0  22390-2 0  9994
2 87071  61.2237  15.6757 0472183 280.9760  73.8509 13.86646500614422
UNKNOWN                 
1 87129U          26065.23947048  .00000226  00000+0  19652-2 0  9997
2 87129 102.2547 162.1930 0031013 280.9612  78.7964 12.42856188557045
UNKNOWN                 
1 87159U          26069.44043040  .00001641  00000+0  19038-2 0  9996
2 87159  90.3458  72.5568 0104468 358.4070   1.6742 13.66321510568663
UNKNOWN                 
1 87163U          26068.95214372  .00007812  00000+0  22791-2 0  9990
2 87163  65.6021  21.1047 0645943  25.5986 337.5605 13.64501191589415
UNKNOWN                 
1 87164U          26068.41317031  .00005763  00000+0  11471-2 0  9994
2 87164  65.2027  75.7912 0106584  14.2221 346.1838 14.59294222648413
UNKNOWN                 
1 87204U          26069.40968251  .00002417  00000+0  94572-3 0  9992
2 87204  98.5321 293.4768 0046574  66.3350 294.2711 14.29810383637965
UNKNOWN                 
1 87211U          26068.25110016  .00004105  00000+0  11180-2 0  9999
2 87211  99.0880  79.3210 0051446 261.4956 157.7742 14.47250724720288
UNKNOWN                 
1 87214U          26067.47868392  .00002011  00000+0  18135-2 0  9993
2 87214 100.3328  79.5786 0068594  35.0870 325.4772 13.84277415612100
